STARLINK-2185
1 47767U 21017AX  26090.31812405  .00092211  00000+0  20293-2 0  9995
2 47767  53.1591 103.2491 0001647  77.9429 282.1762 15.43224994281207
